IRIDIUM 57 [-]          
1 25273U 98019B   23267.44109876  .00000621  00000+0  21167-3 0  9993
2 25273  86.3957  49.7815 0002084  92.1166 268.0269 14.34904890334377
IRIDIUM 63 [-]          
1 25286U 98021B   23266.58576935  .00000618  00000+0  20843-3 0  9994
2 25286  86.4040 347.1092 0002237  97.7595 262.3855 14.35414103333061
IRIDIUM 69 [-]          
1 25319U 98026A   23267.36368872  .00000937  00000+0  29414-3 0  9999
2 25319  86.4048   1.9288 0001223  16.3765 343.7473 14.39573573332361
IRIDIUM 71 [-]          
1 25320U 98026B   23266.79838398  .00000750  00000+0  23260-3 0  9998
2 25320  86.4039 357.0070 0003256  53.0875 307.0622 14.39912249332800
IRIDIUM 73 [-]          
1 25344U 98032C   23266.59646610  .00000725  00000+0  18193-3 0  9994
2 25344  86.4415 314.9768 0001935  76.0808 284.0612 14.50028699338846
IRIDIUM 82 [-]          
1 25467U 98051A   23266.79385775  .00017475  00000+0  10359-2 0  9990
2 25467  86.3932  51.4060 0149996 116.9853 244.6788 15.02174428328246
IRIDIUM 2 [-]           
1 25527U 98066A   23267.08875907  .00035206  00000+0  87603-3 0  9996
2 25527  85.5174 111.4316 0003425 282.8806  77.2063 15.40112500365871
